STARLINK-4273           
1 53181U 22083BB  24215.75612880  .00044364  00000+0  26107-2 0  9992
2 53181  53.2135 224.9674 0002531  42.8562 317.2628 15.11232218114406
STARLINK-4278           
1 53182U 22083BC  24215.48277782  .00002330  00000+0  16445-3 0  9993
2 53182  53.2142 241.7178 0001335  96.4883 263.6262 15.08841543113504
STARLINK-4268           
1 53183U 22083BD  24215.42480362  .00000951  00000+0  77801-4 0  9999
2 53183  53.2159 231.9033 0001381  88.7260 271.3890 15.08841330113639
STARLINK-4257           
1 53184U 22083BE  24215.30194337  .00001801  00000+0  13119-3 0  9997
2 53184  53.2156 227.1266 0001402  84.7140 275.4012 15.08842658113702
STARLINK-4391           
1 53189U 22084A   24215.71212939  .00001329  00000+0  10807-3 0  9993
2 53189  97.6548 275.8786 0000637 115.9509 244.1781 15.01251561112082
STARLINK-4332           
1 53190U 22084B   24215.73964163  .00001734  00000+0  13953-3 0  9995
2 53190  97.6547 275.8925 0004241 217.1115 142.9816 15.01262464112089
STARLINK-4369           
1 53191U 22084C   24215.70077604  .00001488  00000+0  12044-3 0  9994
2 53191  97.6534 275.8764 0001526  89.9688 270.1711 15.01254317112075
STARLINK-4375           
1 53192U 22084D   24215.76557380  .00000674  00000+0  57060-4 0  9999
2 53192  97.6528 275.9385 0001762  98.7732 261.3692 15.01257463112085
STARLINK-4351           
1 53193U 22084E   24215.57116760  .00000402  00000+0  35885-4 0  9992
2 53193  97.6544 275.7523 0001788  87.0593 273.0836 15.01247767112693
STARLINK-4382           
1 53194U 22084F   24215.70262458 -.00000604  00000+0 -42435-4 0  9999
2 53194  97.6545 275.8805 0001687  86.8512 273.2905 15.01255233112073
STARLINK-4404           
1 53195U 22084G   24215.75631221 -.00000266  00000+0 -16111-4 0  9999
2 53195  97.6542 275.9398 0000744  98.1372 261.9937 15.01257237112088
STARLINK-4407           
1 53196U 22084H   24215.69151117 -.00002460  00000+0 -18700-3 0  9997
2 53196  97.6539 275.8773 0001450  85.5600 274.5789 15.01255400112074
STARLINK-4403           
1 53197U 22084J   24215.62670897  .00002856  00000+0  22684-3 0  9995
2 53197  97.6541 275.7984 0000835 109.0475 251.0840 15.01264940111682
STARLINK-4385           
1 53198U 22084K   24215.76372544  .00001395  00000+0  11318-3 0  9998
2 53198  97.6530 275.9344 0001586  91.8159 268.3246 15.01251632112084
STARLINK-4395           
1 53199U 22084L   24215.76187366 -.00000444  00000+0 -29964-4 0  9998
2 53199  97.6536 275.9230 0001586  99.4629 260.6774 15.01251757112080
STARLINK-4417           
1 53200U 22084M   24215.75841270  .00000345  00000+0  31450-4 0  9992
2 53200  97.6539 275.9342 0001351  88.0949 272.0430 15.01255152112088
STARLINK-4405           
1 53201U 22084N   24215.81579759 -.00001065  00000+0 -78322-4 0  9991
2 53201  97.6544 275.9904 0002575 241.5077 118.5888 15.01255940112093
STARLINK-4411           
1 53202U 22084P   24215.88776360  .00000579  00000+0  49693-4 0  9992
2 53202  97.6543 276.0597 0000053  91.9157 268.2073 15.01260221112107
STARLINK-4409           
1 53203U 22084Q   24215.88406136  .00000561  00000+0  48280-4 0  9996
2 53203  97.6544 276.0459 0001680 245.0557 115.0492 15.01256402112109
STARLINK-4410           
1 53204U 22084R   24215.82136071 -.00000340  00000+0 -21908-4 0  9994
2 53204  97.6547 275.9868 0000553 122.4704 237.6573 15.01253019112095
STARLINK-4397           
1 53205U 22084S   24215.88035252 -.00000025  00000+0  26690-5 0  9993
2 53205  97.6542 276.0415 0003509 232.4667 127.6239 15.01258620112107
STARLINK-4408           
1 53206U 22084T   24215.73593469  .00003659  00000+0  28928-3 0  9996
2 53206  97.6563 275.9303 0003547 199.6445 160.4643 15.01261933112087
STARLINK-4413           
1 53207U 22084U   24215.74519267  .00002311  00000+0  18444-3 0  9998
2 53207  97.6538 275.9063 0004367 224.8663 135.2209 15.01265637112080
STARLINK-4425           
1 53208U 22084V   24215.75260268  .00001010  00000+0  83200-4 0  9992
2 53208  97.6552 275.9129 0001474 245.7998 114.3072 15.01264888112082
STARLINK-4423           
1 53209U 22084W   24215.74358749  .00001095  00000+0  89855-4 0  9999
2 53209  97.6539 275.9045 0004316 222.5803 137.5087 15.01262827112085
STARLINK-4427           
1 53210U 22084X   24215.81555816  .00010662  00000+0  83328-3 0  9991
2 53210  97.6542 275.9782 0002418 234.6253 125.4746 15.01266871112095
STARLINK-4419           
1 53211U 22084Y   24215.73803822 -.00001268  00000+0 -94094-4 0  9993
2 53211  97.6550 275.9040 0003756 204.2468 155.8580 15.01255315112082
STARLINK-4416           
1 53212U 22084Z   24215.74334423 -.00001190  00000+0 -88036-4 0  9994
2 53212  97.6551 275.9051 0004416 214.6931 145.4005 15.01252820112085
STARLINK-4414           
1 53213U 22084AA  24215.13422974  .00004854  00000+0  38214-3 0  9997
2 53213  97.6537 275.3013 0002474 173.7613 186.3642 15.01272201112138
STARLINK-4353           
1 53214U 22084AB  24215.74149423  .00001016  00000+0  83668-4 0  9991
2 53214  97.6538 275.9026 0003744 210.6918 149.4088 15.01262077112088
STARLINK-4335           
1 53215U 22084AC  24215.59893754 -.00004928  00000+0 -37933-3 0  9998
2 53215  97.6560 275.7643 0002053 159.0302 201.1006 15.01257919112201
STARLINK-4376           
1 53216U 22084AD  24215.73779407 -.00000154  00000+0 -73405-5 0  9996
2 53216  97.6548 275.8999 0003996 192.3092 167.8035 15.01260588112088
STARLINK-4379           
1 53217U 22084AE  24215.72113050  .00001956  00000+0  15680-3 0  9990
2 53217  97.6569 275.9158 0000891  76.8936 283.2388 15.01264069112086
STARLINK-4384           
1 53218U 22084AF  24215.45661286  .00007961  00000+0  62344-3 0  9991
2 53218  97.6576 275.6640 0000681 141.7861 218.3411 15.01276733112182
STARLINK-4373           
1 53219U 22084AG  24215.72483880  .00001869  00000+0  15012-3 0  9995
2 53219  97.6568 275.8928 0000899 182.1554 177.9666 15.01250773111710
STARLINK-4363           
1 53220U 22084AH  24215.73039857  .00000552  00000+0  47614-4 0  9991
2 53220  97.6561 275.8958 0001355 163.5346 196.5922 15.01250406111713
STARLINK-4377           
1 53221U 22084AJ  24215.58968675  .00002528  00000+0  20129-3 0  9990
2 53221  97.6588 275.7698 0001271 128.1453 231.9886 15.01267796111685
STARLINK-4381           
1 53222U 22084AK  24215.72854456  .00001357  00000+0  11022-3 0  9999
2 53222  97.6569 275.8910 0002321 156.0397 204.0935 15.01254226112082
STARLINK-4354           
1 53223U 22084AL  24215.72879367  .00001208  00000+0  98596-4 0  9995
2 53223  97.6567 275.8769 0002220 122.3006 237.8433 15.01257492111707
STARLINK-4356           
1 53224U 22084AM  24215.72669814  .00001454  00000+0  11782-3 0  9994
2 53224  97.6579 275.8956 0001143 127.4777 232.6551 15.01252200111710
STARLINK-4358           
1 53225U 22084AN  24215.71743651  .00000824  00000+0  68722-4 0  9993
2 53225  97.6561 275.8951 0000218 345.1000  15.0218 15.01251261111705
STARLINK-4359           
1 53226U 22084AP  24215.71558144 -.00004707  00000+0 -36205-3 0  9991
2 53226  97.6551 275.9080 0000125   5.7217 354.4008 15.01269317111714
STARLINK-4366           
1 53227U 22084AQ  24215.70633275  .00000876  00000+0  72770-4 0  9999
2 53227  97.6548 275.9033 0001589  85.5434 274.5971 15.01248475111703
STARLINK-4365           
1 53228U 22084AR  24215.71929377  .00000915  00000+0  75876-4 0  9996
2 53228  97.6569 275.8969 0000373  63.8101 296.3162 15.01246458111707
STARLINK-4367           
1 53229U 22084AS  24215.71372794  .00004283  00000+0  33790-3 0  9992
2 53229  97.6514 275.8916 0000260 297.1771  62.9426 15.01254608111706
STARLINK-4364           
1 53230U 22084AT  24215.71767174  .00002704  00000+0  21504-3 0  9990
2 53230  97.6564 275.8925 0000383 230.4348 129.6843 15.01262134112088
STARLINK-4370           
1 53231U 22084AU  24215.71002836  .00001122  00000+0  91896-4 0  9993
2 53231  97.6547 275.8884 0001475  95.7334 264.4058 15.01260148111701
STARLINK-4371           
1 53232U 22084AV  24215.71187699  .00003095  00000+0  24549-3 0  9996
2 53232  97.6509 275.8902 0000183  29.4171 330.7063 15.01256014111709
STARLINK-4372           
1 53233U 22084AW  24215.70657090  .00000918  00000+0  76059-4 0  9998
2 53233  97.6543 275.8894 0001395  94.7513 265.3870 15.01257159111709
STARLINK-4368           
1 53234U 22084AX  24215.70817898  .00000974  00000+0  80425-4 0  9997
2 53234  97.6537 275.8845 0001784 106.9821 253.1599 15.01258067111712
STARLINK-4056           
1 53242U 22086A   24215.53245213 -.00002641  00000+0 -14794-3 0  9995
2 53242  53.2175 301.4976 0001424  81.1767 278.9386 15.08835506113124
STARLINK-4047           
1 53243U 22086B   24215.57060195 -.00000307  00000+0 -11952-5 0  9996
2 53243  53.2179 306.0259 0001481  97.1343 262.9818 15.08839726113080
STARLINK-4125           
1 53244U 22086C   24215.53017433 -.00001960  00000+0 -10506-3 0  9998
2 53244  53.2186 306.5939 0001472  91.6635 268.4526 15.08842428113059
STARLINK-4131           
1 53246U 22086E   24215.52648406  .00000436  00000+0  45461-4 0  9993
2 53246  53.2169 306.5367 0001259  78.2058 281.9076 15.08837171111945
STARLINK-4061           
1 53247U 22086F   24215.74592189  .00031875  00000+0  20120-2 0  9998
2 53247  53.2161 300.7322 0001572  85.2947 274.8224 15.08836568112652
STARLINK-4135           
1 53248U 22086G   24215.53616237  .00000917  00000+0  75744-4 0  9994
2 53248  53.2178 301.5936 0001265  82.9290 277.1846 15.08828256113129
STARLINK-4128           
1 53249U 22086H   24215.60563250 -.00000319  00000+0 -19656-5 0  9998
2 53249  53.2149 296.1864 0001192  89.6765 270.4363 15.08842670112908
STARLINK-4059           
1 53250U 22086J   24215.60836799 -.00000308  00000+0 -12413-5 0  9993
2 53250  53.2172 296.1656 0001578  84.4468 275.6704 15.08829910112904
STARLINK-4129           
1 53251U 22086K   24215.59732824 -.00003494  00000+0 -20169-3 0  9990
2 53251  53.2175 296.2145 0001476  95.4675 264.6486 15.08817137112881
